OBJECT_NAME,OBJECT_ID,EPOCH,MEAN_MOTION,ECCENTRICITY,INCLINATION,RA_OF_ASC_NODE,ARG_OF_PERICENTER,MEAN_ANOMALY,EPHEMERIS_TYPE,CLASSIFICATION_TYPE,NORAD_CAT_ID,ELEMENT_SET_NO,REV_AT_EPOCH,BSTAR,MEAN_MOTION_DOT,MEAN_MOTION_DDOT
STARLINK-3792,2022-045J,2026-06-16T03:46:49.599264,15.08830302,.00012911,53.1608,126.6360,79.8025,280.3112,0,U,52339,999,23051,-.83508275E-4,-.1616E-4,0
STARLINK-3818,2022-045K,2026-06-16T13:15:14.317056,15.08823465,.0001285,53.1590,115.2170,79.0057,281.1079,0,U,52340,999,23069,.34181E-4,.256E-5,0
STARLINK-3843,2022-045L,2026-06-16T04:34:34.472928,15.08829127,.00013052,53.1612,126.7960,88.6557,271.4584,0,U,52341,999,23051,.50569329E-4,.517E-5,0
STARLINK-3850,2022-045M,2026-06-16T13:20:32.339040,15.08829327,.0001345,53.1615,115.3185,86.9098,273.2048,0,U,52342,999,23070,.37572E-4,.31E-5,0
STARLINK-3849,2022-045N,2026-06-16T03:52:10.465536,15.08834667,.00013095,53.1614,126.9773,86.9435,273.1706,0,U,52343,999,23051,.8819231E-5,-.148E-5,0
STARLINK-3851,2022-045P,2026-06-16T13:04:37.924032,15.08837708,.0001502,53.1621,115.3197,89.2109,270.9054,0,U,52344,999,23070,-.93085E-4,-.1769E-4,0
STARLINK-3852,2022-045Q,2026-06-16T13:43:07.369248,15.08832335,.0001348,53.1607,115.2978,88.7274,271.3872,0,U,52345,999,23069,.39807E-4,.345E-5,0
STARLINK-3812,2022-045R,2026-06-16T03:23:05.131104,15.08832445,.00016842,53.1609,117.0760,87.6863,272.4321,0,U,52346,999,23064,.405667E-5,-.224E-5,0
STARLINK-3826,2022-045S,2026-06-16T13:11:17.814336,15.08832947,.0001439,53.1622,115.2409,87.4311,272.6845,0,U,52347,999,23070,.29413E-4,.18E-5,0
STARLINK-3829,2022-045T,2026-06-16T03:11:06.423936,15.08834972,.0001388,53.1607,117.1043,89.9254,270.1896,0,U,52348,999,23064,.39005971E-4,.333E-5,0
STARLINK-3819,2022-045U,2026-06-16T03:27:00.318816,15.08832964,.00015007,53.1622,117.0554,92.7009,267.4154,0,U,52349,999,23064,.76592E-7,-.287E-5,0
STARLINK-3754,2022-045V,2026-06-16T03:05:48.330240,15.08835249,.00014552,53.1600,117.1232,85.5194,274.5964,0,U,52350,999,23064,.90459387E-4,.1152E-4,0
STARLINK-3838,2022-045X,2026-06-16T13:57:36.629280,15.08834013,.0001451,53.1611,115.0870,87.6501,272.4657,0,U,52352,999,23071,.31147E-4,.208E-5,0
STARLINK-3807,2022-045Y,2026-06-16T03:00:32.218560,15.08821501,.00013906,53.1610,117.1393,85.6388,274.4762,0,U,52353,999,23064,.56683729E-4,.614E-5,0
STARLINK-3877,2022-045AA,2026-06-16T02:55:12.364032,15.08846451,.00012988,53.1603,117.1554,99.6594,260.4544,0,U,52355,999,23064,.57183299E-4,.622E-5,0
STARLINK-3801,2022-045AB,2026-06-16T13:47:02.658912,15.08826408,.000135,53.1611,115.1489,90.4766,269.6380,0,U,52356,999,23071,.97533E-4,.1264E-4,0
STARLINK-3821,2022-045AC,2026-06-16T13:52:19.062624,15.08831767,.0001344,53.1602,115.1045,93.6060,266.5085,0,U,52357,999,23071,.80392E-4,.991E-5,0
STARLINK-3837,2022-045AD,2026-06-16T13:25:48.897408,15.08831802,.0001371,53.1605,115.1864,87.5440,272.5708,0,U,52358,999,23071,-.39681E-5,-.351E-5,0
STARLINK-3853,2022-045AE,2026-06-16T13:48:23.588064,15.08833573,.0001064,53.1608,115.1265,106.9237,253.1871,0,U,52359,999,23071,.4485E-4,.426E-5,0
STARLINK-3728,2022-045AG,2026-06-16T13:36:26.417088,15.08833442,.0001227,53.1608,115.1551,119.7319,240.3794,0,U,52361,999,23071,.87358E-4,.1102E-4,0
STARLINK-3848,2022-045AH,2026-06-16T20:00:01.999008,15.12894091,.0002425,53.1596,103.9285,64.6801,52.0523,0,U,52362,999,578,.28212E-2,.50288E-3,0
STARLINK-3830,2022-045AJ,2026-06-16T13:31:08.668128,15.08824384,.0001502,53.1617,115.1720,95.5959,264.5204,0,U,52363,999,23071,.13097E-3,.1796E-4,0
STARLINK-3820,2022-045AK,2026-06-16T12:50:02.359392,15.08826458,.00014494,53.1626,105.2121,93.5376,266.5781,0,U,52364,999,23084,-.36381014E-4,-.867E-5,0
STARLINK-3874,2022-045AL,2026-06-16T13:21:50.220000,15.08835803,.0001434,53.1614,105.1975,89.2454,270.8702,0,U,52365,999,23084,.43803E-4,.409E-5,0
STARLINK-3808,2022-045AM,2026-06-16T12:55:18.222240,15.08865639,.0001631,53.1629,105.2822,83.5556,276.5621,0,U,52366,999,23084,.19372E-3,.2798E-4,0
STARLINK-3817,2022-045AN,2026-06-16T13:05:56.689728,15.08832326,.0001357,53.1614,105.2488,90.0994,270.0153,0,U,52367,999,23084,.71223E-4,.845E-5,0
STARLINK-3834,2022-045AP,2026-06-16T12:39:27.163008,15.08829924,.00013965,53.1614,105.3306,89.1482,270.9669,0,U,52368,999,23083,.7603366E-5,-.167E-5,0
STARLINK-3841,2022-045AQ,2026-06-16T03:28:20.023680,15.08830799,.00013188,53.1614,107.0518,95.4341,264.6801,0,U,52369,999,23078,.84544106E-4,.1058E-4,0
STARLINK-3827,2022-045AR,2026-06-16T12:51:26.072352,15.08826302,.0001529,53.1623,105.3053,95.1756,264.9410,0,U,52370,999,23084,.30497E-4,.197E-5,0
STARLINK-3798,2022-045AS,2026-06-16T12:46:07.925952,15.08828591,.00014478,53.1613,105.3213,98.2930,261.8226,0,U,52371,999,23083,.543281E-5,-.202E-5,0
