STARLINK-3792           
1 52339U 22045J   26167.15751851 -.00001616  00000+0 -83508-4 0  9993
2 52339  53.1608 126.6360 0001291  79.8025 280.3112 15.08830302230513
STARLINK-3818           
1 52340U 22045K   26167.55224904  .00000256  00000+0  34181-4 0  9993
2 52340  53.1590 115.2170 0001285  79.0057 281.1079 15.08823465230690
STARLINK-3843           
1 52341U 22045L   26167.19067677  .00000517  00000+0  50569-4 0  9994
2 52341  53.1612 126.7960 0001305  88.6557 271.4584 15.08829127230519
STARLINK-3850           
1 52342U 22045M   26167.55592985  .00000310  00000+0  37572-4 0  9990
2 52342  53.1615 115.3185 0001345  86.9098 273.2048 15.08829327230709
STARLINK-3849           
1 52343U 22045N   26167.16123224 -.00000148  00000+0  88192-5 0  9999
2 52343  53.1614 126.9773 0001309  86.9435 273.1706 15.08834667230517
STARLINK-3851           
1 52344U 22045P   26167.54488338 -.00001769  00000+0 -93085-4 0  9999
2 52344  53.1621 115.3197 0001502  89.2109 270.9054 15.08837708230708
STARLINK-3852           
1 52345U 22045Q   26167.57161307  .00000345  00000+0  39807-4 0  9996
2 52345  53.1607 115.2978 0001348  88.7274 271.3872 15.08832335230696
STARLINK-3812           
1 52346U 22045R   26167.14103161 -.00000224  00000+0  40567-5 0  9997
2 52346  53.1609 117.0760 0001684  87.6863 272.4321 15.08832445230641
STARLINK-3826           
1 52347U 22045S   26167.54951174  .00000180  00000+0  29413-4 0  9993
2 52347  53.1622 115.2409 0001439  87.4311 272.6845 15.08832947230708
STARLINK-3829           
1 52348U 22045T   26167.13271324  .00000333  00000+0  39006-4 0  9990
2 52348  53.1607 117.1043 0001388  89.9254 270.1896 15.08834972230645
STARLINK-3819           
1 52349U 22045U   26167.14375369 -.00000287  00000+0  76592-7 0  9999
2 52349  53.1622 117.0554 0001500  92.7009 267.4154 15.08832964230640
STARLINK-3754           
1 52350U 22045V   26167.12903160  .00001152  00000+0  90459-4 0  9991
2 52350  53.1600 117.1232 0001455  85.5194 274.5964 15.08835249230643
STARLINK-3838           
1 52352U 22045X   26167.58167395  .00000208  00000+0  31147-4 0  9995
2 52352  53.1611 115.0870 0001451  87.6501 272.4657 15.08834013230715
STARLINK-3807           
1 52353U 22045Y   26167.12537290  .00000614  00000+0  56684-4 0  9995
2 52353  53.1610 117.1393 0001390  85.6388 274.4762 15.08821501230640
STARLINK-3877           
1 52355U 22045AA  26167.12167088  .00000622  00000+0  57183-4 0  9995
2 52355  53.1603 117.1554 0001298  99.6594 260.4544 15.08846451230648
STARLINK-3801           
1 52356U 22045AB  26167.57433633  .00001264  00000+0  97533-4 0  9993
2 52356  53.1611 115.1489 0001350  90.4766 269.6380 15.08826408230719
STARLINK-3821           
1 52357U 22045AC  26167.57799841  .00000991  00000+0  80392-4 0  9991
2 52357  53.1602 115.1045 0001344  93.6060 266.5085 15.08831767230715
STARLINK-3837           
1 52358U 22045AD  26167.55959372 -.00000351  00000+0 -39681-5 0  9995
2 52358  53.1605 115.1864 0001371  87.5440 272.5708 15.08831802230711
STARLINK-3853           
1 52359U 22045AE  26167.57527301  .00000426  00000+0  44850-4 0  9995
2 52359  53.1608 115.1265 0001064 106.9237 253.1871 15.08833573230712
STARLINK-3728           
1 52361U 22045AG  26167.56697242  .00001102  00000+0  87358-4 0  9991
2 52361  53.1608 115.1551 0001227 119.7319 240.3794 15.08833442230714
STARLINK-3848           
1 52362U 22045AH  26167.83335647  .00050288  00000+0  28212-2 0  9991
2 52362  53.1596 103.9285 0002425  64.6801  52.0523 15.12894091  5782
STARLINK-3830           
1 52363U 22045AJ  26167.56329477  .00001796  00000+0  13097-3 0  9992
2 52363  53.1617 115.1720 0001502  95.5959 264.5204 15.08824384230710
STARLINK-3820           
1 52364U 22045AK  26167.53474953 -.00000867  00000+0 -36381-4 0  9992
2 52364  53.1626 105.2121 0001449  93.5376 266.5781 15.08826458230847
STARLINK-3874           
1 52365U 22045AL  26167.55683125  .00000409  00000+0  43803-4 0  9995
2 52365  53.1614 105.1975 0001434  89.2454 270.8702 15.08835803230849
STARLINK-3808           
1 52366U 22045AM  26167.53840535  .00002798  00000+0  19372-3 0  9990
2 52366  53.1629 105.2822 0001631  83.5556 276.5621 15.08865639230840
STARLINK-3817           
1 52367U 22045AN  26167.54579502  .00000845  00000+0  71223-4 0  9990
2 52367  53.1614 105.2488 0001357  90.0994 270.0153 15.08832326230843
STARLINK-3834           
1 52368U 22045AP  26167.52739772 -.00000167  00000+0  76034-5 0  9990
2 52368  53.1614 105.3306 0001396  89.1482 270.9669 15.08829924230838
STARLINK-3841           
1 52369U 22045AQ  26167.14467620  .00001058  00000+0  84544-4 0  9992
2 52369  53.1614 107.0518 0001318  95.4341 264.6801 15.08830799230785
STARLINK-3827           
1 52370U 22045AR  26167.53571843  .00000197  00000+0  30497-4 0  9991
2 52370  53.1623 105.3053 0001529  95.1756 264.9410 15.08826302230844
STARLINK-3798           
1 52371U 22045AS  26167.53203618 -.00000202  00000+0  54328-5 0  9992
2 52371  53.1613 105.3213 0001447  98.2930 261.8226 15.08828591230831
